{
"type": "FeatureCollection",
"name": "london_theft_hotspots",
"crs": { "type": "name", "properties": { "name": "urn:ogc:def:crs:OGC:1.3:CRS84" } },
"features": [
{ "type": "Feature", "properties": { "hotspot_id": 1, "area_m2": 36264.1 }, "geometry": { "type": "Polygon", "coordinates": [ [ [ -0.097497900531911, 51.514873388678907 ], [ -0.097501913473894, 51.514777117904366 ], [ -0.097656208005532, 51.514779621302878 ], [ -0.097664233166712, 51.514587079706303 ], [ -0.097818527065318, 51.514589582862278 ], [ -0.097830563655618, 51.514300770388978 ], [ -0.097676270740198, 51.514298267293384 ], [ -0.097688308111747, 51.514009454858773 ], [ -0.097534016201929, 51.514006951621305 ], [ -0.097542041659547, 51.513814410026441 ], [ -0.097387750427599, 51.513811906626984 ], [ -0.097391763450467, 51.513715635846069 ], [ -0.09723747256867, 51.513713132264478 ], [ -0.09724148589681, 51.513616861501291 ], [ -0.097087195365164, 51.513614357737573 ], [ -0.097091208998575, 51.513518086992093 ], [ -0.096936918817079, 51.513515583046249 ], [ -0.096940932755755, 51.513419312318511 ], [ -0.09678664292441, 51.513416808190541 ], [ -0.096790657168349, 51.513320537480524 ], [ -0.096636367687152, 51.513318033170435 ], [ -0.096640382236351, 51.513221762478139 ], [ -0.096331803996703, 51.513216753291459 ], [ -0.09633581917886, 51.513120482637021 ], [ -0.096181530420407, 51.51311797776043 ], [ -0.096185545907814, 51.513021707123741 ], [ -0.095876969113664, 51.51301669680408 ], [ -0.095880985234017, 51.512920426205234 ], [ -0.095263833225956, 51.512910403219436 ], [ -0.09526785063464, 51.512814132698743 ], [ -0.095113563016466, 51.512811626466814 ], [ -0.095109545280085, 51.512907896967363 ], [ -0.094646681577246, 51.512900376997642 ], [ -0.094642662835304, 51.512996647435372 ], [ -0.094488374651591, 51.512994140354166 ], [ -0.094484355559478, 51.513090410769315 ], [ -0.094330067070534, 51.513087903465717 ], [ -0.094326047628246, 51.513184173858335 ], [ -0.094171758834071, 51.513181666332329 ], [ -0.09415165964696, 51.513663018158539 ], [ -0.094305950079668, 51.513665525785271 ], [ -0.094297910902903, 51.513858066539179 ], [ -0.09445220201351, 51.513860574003935 ], [ -0.094448182719129, 51.51395684439742 ], [ -0.094602474179921, 51.513959351680072 ], [ -0.094598455190782, 51.51405562209127 ], [ -0.094752747001761, 51.514058129191824 ], [ -0.094748728317869, 51.514154399620764 ], [ -0.094903020479036, 51.514156906539185 ], [ -0.094899002100393, 51.514253176985861 ], [ -0.095207587145563, 51.5142581902562 ], [ -0.0952035693999, 51.514354460740748 ], [ -0.095357862283902, 51.514356967092674 ], [ -0.095353844843497, 51.514453237594964 ], [ -0.095662431334334, 51.514458249732293 ], [ -0.09565841452692, 51.514554520272455 ], [ -0.095812708133752, 51.514557026057865 ], [ -0.095808691631607, 51.514653296615741 ], [ -0.096117279568096, 51.51465830762006 ], [ -0.096113263698955, 51.514754578215808 ], [ -0.09657614675527, 51.514762093265709 ], [ -0.096572131846875, 51.514858363919473 ], [ -0.097497900531911, 51.514873388678907 ] ] ] } },
{ "type": "Feature", "properties": { "hotspot_id": 2, "area_m2": 34772.2 }, "geometry": { "type": "Polygon", "coordinates": [ [ [ -0.0813137310779, 51.517885033500647 ], [ -0.081317779125699, 51.517788764737638 ], [ -0.081626386864006, 51.517793817260383 ], [ -0.081630434239077, 51.517697548474416 ], [ -0.081784737816845, 51.517700074421079 ], [ -0.081788784844311, 51.51760380562267 ], [ -0.081943088119449, 51.517606331356028 ], [ -0.081947134799311, 51.517510062545199 ], [ -0.08210143777182, 51.517512588065237 ], [ -0.082105484104085, 51.517416319241988 ], [ -0.082259786773962, 51.517418844548729 ], [ -0.08226383275863, 51.517322575713038 ], [ -0.082418135125877, 51.517325100806488 ], [ -0.082422180762955, 51.517228831958349 ], [ -0.082576482827569, 51.517231356838494 ], [ -0.082604797436572, 51.516557474610792 ], [ -0.082450497639467, 51.51655494980384 ], [ -0.082454542794972, 51.516458680915072 ], [ -0.082300243345389, 51.516456155915911 ], [ -0.082304288803464, 51.516359887035783 ], [ -0.082149989701404, 51.516357361844399 ], [ -0.082154035462046, 51.516261092972925 ], [ -0.081228243272025, 51.516245937629748 ], [ -0.081224195561111, 51.516342206437876 ], [ -0.080606999917303, 51.516332098778093 ], [ -0.080602950883711, 51.516428367542083 ], [ -0.080294352546674, 51.51642331247443 ], [ -0.080290302840489, 51.516519581215363 ], [ -0.079981703943351, 51.516514525315507 ], [ -0.079977653564565, 51.516610794033397 ], [ -0.079823353824699, 51.516608265768753 ], [ -0.079819303098356, 51.516704534474179 ], [ -0.079665003055941, 51.516702005996187 ], [ -0.079660951982038, 51.516798274689123 ], [ -0.079506651637079, 51.516795745997783 ], [ -0.079502600215611, 51.516892014678255 ], [ -0.079348299568106, 51.516889485773575 ], [ -0.079340196007521, 51.517082023107626 ], [ -0.079185894732413, 51.51707949397904 ], [ -0.07918184259329, 51.517175762632618 ], [ -0.079027541015635, 51.517173233290698 ], [ -0.079015382595508, 51.517462039135729 ], [ -0.078861080073005, 51.517459509560062 ], [ -0.078852973686277, 51.51765204675862 ], [ -0.079007276859002, 51.517654576355362 ], [ -0.078999171032412, 51.517847113567342 ], [ -0.0813137310779, 51.517885033500647 ] ] ] } },
{ "type": "Feature", "properties": { "hotspot_id": 3, "area_m2": 17902.5 }, "geometry": { "type": "Polygon", "coordinates": [ [ [ -0.085539698499355, 51.512848383597245 ], [ -0.085543736575195, 51.512752114349112 ], [ -0.085698023125027, 51.512754633140453 ], [ -0.085706098553598, 51.512562094596603 ], [ -0.085860384470631, 51.512564613145344 ], [ -0.085864421823369, 51.512468343849598 ], [ -0.085710136234019, 51.512465825321044 ], [ -0.085730324297489, 51.511984478907067 ], [ -0.085576040369099, 51.511981960277183 ], [ -0.085588153919287, 51.511693152460367 ], [ -0.085433870996479, 51.511690633688808 ], [ -0.085445985326474, 51.511401825910781 ], [ -0.085291703409232, 51.511399306997518 ], [ -0.085303818519003, 51.511110499258336 ], [ -0.085149537607315, 51.511107980203391 ], [ -0.085157614889574, 51.510915441738881 ], [ -0.085003334655771, 51.510912922522081 ], [ -0.085007373590682, 51.510816653306385 ], [ -0.084544532240378, 51.510809089801327 ], [ -0.084536452357338, 51.511001628055546 ], [ -0.084382171163167, 51.510999106090715 ], [ -0.084349848133505, 51.511769258946828 ], [ -0.084195564362137, 51.511766736694916 ], [ -0.084171319197217, 51.512344351193505 ], [ -0.084325604918392, 51.512346873508683 ], [ -0.084317523667087, 51.512539411680706 ], [ -0.084471810060658, 51.512541933814234 ], [ -0.084467769726308, 51.512638202907922 ], [ -0.084622056467301, 51.512640724849248 ], [ -0.084618016435482, 51.512736993951556 ], [ -0.084772303523898, 51.512739515700687 ], [ -0.084768263794612, 51.512835784811642 ], [ -0.085539698499355, 51.512848383597245 ] ] ] } }
]
}
